[{"OBJECT_NAME":"STARLINK-3292","OBJECT_ID":"2021-125U","EPOCH":"2026-03-09T22:14:40.531200","MEAN_MOTION":15.08854147,"ECCENTRICITY":0.00013563,"INCLINATION":53.216,"RA_OF_ASC_NODE":243.6683,"ARG_OF_PERICENTER":93.9191,"MEAN_ANOMALY":266.1957,"EPHEMERIS_TYPE":0,"CLASSIFICATION_TYPE":"U","NORAD_CAT_ID":50174,"ELEMENT_SET_NO":999,"REV_AT_EPOCH":23674,"BSTAR":-0.00023246581,"MEAN_MOTION_DOT":-3.987e-5,"MEAN_MOTION_DDOT":0},{"OBJECT_NAME":"COSMOS 252 DEB","OBJECT_ID":"1968-097ET","EPOCH":"2026-03-08T21:00:26.436672","MEAN_MOTION":13.95651289,"ECCENTRICITY":0.05801012,"INCLINATION":62.793,"RA_OF_ASC_NODE":17.3776,"ARG_OF_PERICENTER":65.663,"MEAN_ANOMALY":300.3848,"EPHEMERIS_TYPE":0,"CLASSIFICATION_TYPE":"U","NORAD_CAT_ID":19479,"ELEMENT_SET_NO":999,"REV_AT_EPOCH":87836,"BSTAR":0.0017136051,"MEAN_MOTION_DOT":9.921e-5,"MEAN_MOTION_DDOT":0}]
